NORAD_CAT_ID,OBJECT_NAME,OBJECT_TYPE,EPOCH,MEAN_MOTION,ECCENTRICITY,INCLINATION,RA_OF_ASC_NODE,ARG_OF_PERICENTER,MEAN_ANOMALY,BSTAR,MEAN_MOTION_DOT,MEAN_MOTION_DDOT,TLE_LINE0,TLE_LINE1,TLE_LINE2,SEMIMAJOR_AXIS,PERIOD,APOGEE,PERIGEE,DECAYED
51891.0,STARLINK-3549,PAYLOAD,2023-09-27 16:50:42,15.08847503,0.0001578,53.2167,52.3878,96.4121,263.7051,0.00068059,0.00010562,0.0,0 STARLINK-3549,1 51891U 22022AR  23270.70188250  .00010562  00000-0  68059-3 0  9992,2 51891  53.2167  52.3878 0001578  96.4121 263.7051 15.08847503 88334,6917.857,95.437,540.814,538.631,0.0
51891.0,STARLINK-3549,PAYLOAD,2023-09-28 15:06:06,15.08843065,0.0001558,53.2163,48.2264,100.444,259.6728,0.00020268,2.939e-05,0.0,0 STARLINK-3549,1 51891U 22022AR  23271.62924283  .00002939  00000-0  20268-3 0  9997,2 51891  53.2163  48.2264 0001558 100.4440 259.6728 15.08843065 88470,6917.871,95.437,540.814,538.658,0.0
51891.0,STARLINK-3549,PAYLOAD,2023-09-28 18:16:52,15.08849504,0.0001658,53.2174,47.6328,100.8663,259.2515,0.00033703,5.081e-05,0.0,0 STARLINK-3549,1 51891U 22022AR  23271.76172105  .00005081  00000-0  33703-3 0  9999,2 51891  53.2174  47.6328 0001658 100.8663 259.2515 15.08849504 88494,6917.851,95.437,540.863,538.569,0.0
51891.0,STARLINK-3549,PAYLOAD,2023-09-29 08:35:20,15.08844582,0.0001773,53.2183,44.9562,103.896,256.223,0.00012164,1.649e-05,0.0,0 STARLINK-3549,1 51891U 22022AR  23272.35788149  .00001649  00000-0  12164-3 0  9990,2 51891  53.2183  44.9562 0001773 103.8960 256.2230 15.08844582 88587,6917.866,95.437,540.958,538.505,0.0
51891.0,STARLINK-3549,PAYLOAD,2023-09-29 13:21:30,15.08842487,0.0001548,53.2163,44.0609,116.1238,243.9914,9.4049e-05,1.209e-05,0.0,0 STARLINK-3549,1 51891U 22022AR  23272.55660140  .00001209  00000-0  94049-4 0  9997,2 51891  53.2163  44.0609 0001548 116.1238 243.9914 15.08842487 88611,6917.873,95.437,540.809,538.667,0.0
51891.0,STARLINK-3549,PAYLOAD,2023-09-29 14:56:53,15.0884995,0.0001601,53.2166,43.7617,117.1024,243.0132,0.00020163,2.923e-05,0.0,0 STARLINK-3549,1 51891U 22022AR  23272.62283753  .00002923  00000-0  20163-3 0  9995,2 51891  53.2166  43.7617 0001601 117.1024 243.0132 15.08849950 88629,6917.85,95.437,540.823,538.607,0.0
51891.0,STARLINK-3549,PAYLOAD,2023-09-30 17:58:26,15.08854991,0.000145,53.2181,38.7066,98.959,261.1566,0.00030157,4.517e-05,0.0,0 STARLINK-3549,1 51891U 22022AR  23273.74891527  .00004517  00000-0  30157-3 0  9998,2 51891  53.2181  38.7066 0001450  98.9590 261.1566 15.08854991 88795,6917.835,95.437,540.703,538.696,0.0
51891.0,STARLINK-3549,PAYLOAD,2023-10-01 01:55:22,15.08842431,0.0001758,53.2172,37.2207,99.4116,260.7075,0.00012499,1.702e-05,0.0,0 STARLINK-3549,1 51891U 22022AR  23274.08012076  .00001702  00000-0  12499-3 0  9992,2 51891  53.2172  37.2207 0001758  99.4116 260.7075 15.08842431 88849,6917.873,95.437,540.954,538.522,0.0
51891.0,STARLINK-3549,PAYLOAD,2023-10-01 14:38:26,15.0885496,0.0001603,53.2182,34.8434,78.1187,281.9985,0.00025485,3.772e-05,0.0,0 STARLINK-3549,1 51891U 22022AR  23274.61003406  .00003772  00000-0  25485-3 0  9996,2 51891  53.2182  34.8434 0001603  78.1187 281.9985 15.08854960 88920,6917.835,95.437,540.809,538.591,0.0
51891.0,STARLINK-3549,PAYLOAD,2023-10-02 08:07:41,15.08842026,0.0001572,53.2189,31.5729,80.7134,279.4036,-1.7417e-05,-5.65e-06,0.0,0 STARLINK-3549,1 51891U 22022AR  23275.33868000 -.00000565  00000-0 -17417-4 0  9991,2 51891  53.2189  31.5729 0001572  80.7134 279.4036 15.08842026 89036,6917.874,95.437,540.827,538.652,0.0
51891.0,STARLINK-3549,PAYLOAD,2023-10-02 14:29:14,15.08839442,0.0001397,53.219,30.3824,90.2865,269.8288,-1.0385e-05,-4.53e-06,0.0,0 STARLINK-3549,1 51891U 22022AR  23275.60364076 -.00000453  00000-0 -10385-4 0  9998,2 51891  53.2190  30.3824 0001397  90.2865 269.8288 15.08839442 89077,6917.882,95.438,540.714,538.781,0.0
51891.0,STARLINK-3549,PAYLOAD,2023-10-03 12:44:38,15.08835876,0.0001461,53.218,26.2206,87.9845,272.1314,7.0905e-05,8.41e-06,0.0,0 STARLINK-3549,1 51891U 22022AR  23276.53100651  .00000841  00000-0  70905-4 0  9991,2 51891  53.2180  26.2206 0001461  87.9845 272.1314 15.08835876 89217,6917.893,95.438,540.769,538.747,0.0
51891.0,STARLINK-3549,PAYLOAD,2023-10-03 14:20:01,15.08841424,0.0001444,53.2178,25.924,86.0393,274.0764,0.00011678,1.571e-05,0.0,0 STARLINK-3549,1 51891U 22022AR  23276.59724460  .00001571  00000-0  11678-3 0  9999,2 51891  53.2178  25.9240 0001444  86.0393 274.0764 15.08841424 89224,6917.876,95.437,540.74,538.742,0.0
51891.0,STARLINK-3549,PAYLOAD,2023-10-04 14:10:48,15.08856396,0.000133,53.2166,21.4644,90.1732,269.9413,0.00052191,8.032e-05,0.0,0 STARLINK-3549,1 51891U 22022AR  23277.59084151  .00008032  00000-0  52191-3 0  9990,2 51891  53.2166  21.4644 0001330  90.1732 269.9413 15.08856396 89371,6917.83,95.437,540.615,538.775,0.0
51891.0,STARLINK-3549,PAYLOAD,2023-10-04 23:43:09,15.08801933,0.0002315,53.2176,19.6801,88.6532,271.4726,-0.00065463,-0.00010681,0.0,0 STARLINK-3549,1 51891U 22022AR  23277.98830693 -.00010681  00000-0 -65463-3 0  9994,2 51891  53.2176  19.6801 0002315  88.6532 271.4726 15.08801933 89439,6917.997,95.44,541.463,538.26,0.0
51891.0,STARLINK-3549,PAYLOAD,2023-10-05 10:50:51,15.08833452,0.0002735,53.2175,17.5978,123.8335,236.2918,0.00012416,1.688e-05,0.0,0 STARLINK-3549,1 51891U 22022AR  23278.45198176  .00001688  00000-0  12416-3 0  9995,2 51891  53.2175  17.5978 0002735 123.8335 236.2918 15.08833452 89500,6917.9,95.438,541.657,537.873,0.0
51891.0,STARLINK-3549,PAYLOAD,2023-10-05 14:01:37,15.08838963,0.0001543,53.2174,17.0056,105.6009,254.5153,0.00042164,6.429e-05,0.0,0 STARLINK-3549,1 51891U 22022AR  23278.58446183  .00006429  00000-0  42164-3 0  9994,2 51891  53.2174  17.0056 0001543 105.6009 254.5153 15.08838963 89521,6917.884,95.438,540.816,538.681,0.0
51891.0,STARLINK-3549,PAYLOAD,2023-10-06 13:52:24,15.08860682,0.0001371,53.2175,12.5441,95.8723,264.2426,0.00066146,0.00010261,0.0,0 STARLINK-3549,1 51891U 22022AR  23279.57805652  .00010261  00000-0  66146-3 0  9999,2 51891  53.2175  12.5441 0001371  95.8723 264.2426 15.08860682 89672,6917.817,95.436,540.631,538.734,0.0
51891.0,STARLINK-3549,PAYLOAD,2023-10-07 10:32:24,15.08856445,0.0001488,53.2173,8.6771,94.8896,265.2266,0.00026692,3.964e-05,0.0,0 STARLINK-3549,1 51891U 22022AR  23280.43917399  .00003964  00000-0  26692-3 0  9992,2 51891  53.2173   8.6771 0001488  94.8896 265.2266 15.08856445 89801,6917.83,95.437,540.724,538.666,0.0
51891.0,STARLINK-3549,PAYLOAD,2023-10-07 13:43:10,15.08861818,0.0001441,53.2172,8.0826,86.7847,273.331,0.00031891,4.794e-05,0.0,0 STARLINK-3549,1 51891U 22022AR  23280.57165084  .00004794  00000-0  31891-3 0  9992,2 51891  53.2172   8.0826 0001441  86.7847 273.3310 15.08861818 89822,6917.814,95.436,540.676,538.682,0.0
51891.0,STARLINK-3549,PAYLOAD,2023-10-07 18:29:19,15.08874324,0.0001372,53.2171,7.1892,74.4009,285.7135,0.00065823,0.00010213,0.0,0 STARLINK-3549,1 51891U 22022AR  23280.77036439  .00010213  00000-0  65823-3 0  9990,2 51891  53.2171   7.1892 0001372  74.4009 285.7135 15.08874324 89852,6917.775,95.435,540.59,538.691,0.0
51891.0,STARLINK-3549,PAYLOAD,2023-10-07 23:15:29,15.08834628,7.6e-05,53.2173,6.2997,91.0467,269.0613,-0.00051179,-8.422e-05,0.0,0 STARLINK-3549,1 51891U 22022AR  23280.96908961 -.00008422  00000-0 -51179-3 0  9999,2 51891  53.2173   6.2997 0000760  91.0467 269.0613 15.08834628 89885,6917.897,95.438,540.288,539.236,0.0
51891.0,STARLINK-3549,PAYLOAD,2023-10-08 10:23:11,15.08847571,0.0001272,53.2178,4.2169,89.5172,270.5966,0.00053864,8.297e-05,0.0,0 STARLINK-3549,1 51891U 22022AR  23281.43276814  .00008297  00000-0  53864-3 0  9998,2 51891  53.2178   4.2169 0001272  89.5172 270.5966 15.08847571 89950,6917.857,95.437,540.602,538.842,0.0
51891.0,STARLINK-3549,PAYLOAD,2023-10-08 11:58:33,15.08872714,0.0001619,53.2167,3.9183,90.8808,269.237,0.0014465,0.00022829,0.0,0 STARLINK-3549,1 51891U 22022AR  23281.49900459  .00022829  00000-0  14465-2 0  9993,2 51891  53.2167   3.9183 0001619  90.8808 269.2370 15.08872714 89968,6917.78,95.435,540.765,538.525,0.0
51891.0,STARLINK-3549,PAYLOAD,2023-10-08 15:09:19,15.08881106,0.0001617,53.2169,3.3231,90.9265,269.1913,0.0014226,0.00022451,0.0,0 STARLINK-3549,1 51891U 22022AR  23281.63148056  .00022451  00000-0  14226-2 0  9992,2 51891  53.2169   3.3231 0001617  90.9265 269.1913 15.08881106 89983,6917.755,95.435,540.738,538.501,0.0
51891.0,STARLINK-3549,PAYLOAD,2023-10-08 23:06:16,15.08843952,0.0002333,53.218,1.8377,77.0709,283.0544,7.5774e-05,9.18e-06,0.0,0 STARLINK-3549,1 51891U 22022AR  23281.96268778  .00000918  00000-0  75774-4 0  9993,2 51891  53.2180   1.8377 0002333  77.0709 283.0544 15.08843952 90035,6917.868,95.437,541.347,538.119,0.0
51891.0,STARLINK-3549,PAYLOAD,2023-10-09 11:49:21,15.08840769,0.0001993,53.2182,359.4581,82.4655,277.6564,2.7498e-05,1.49e-06,0.0,0 STARLINK-3549,1 51891U 22022AR  23282.49260818  .00000149  00000-0  27498-4 0  9995,2 51891  53.2182 359.4581 0001993  82.4655 277.6564 15.08840769 90110,6917.878,95.438,541.122,538.364,0.0
51891.0,STARLINK-3549,PAYLOAD,2023-10-10 11:40:08,15.08851331,0.0001917,53.2184,354.9967,79.0832,281.0376,0.00058496,9.037e-05,0.0,0 STARLINK-3549,1 51891U 22022AR  23283.48620751  .00009037  00000-0  58496-3 0  9997,2 51891  53.2184 354.9967 0001917  79.0832 281.0376 15.08851331 90268,6917.846,95.437,541.037,538.385,0.0
51891.0,STARLINK-3549,PAYLOAD,2023-10-10 16:26:17,15.08865692,0.000198,53.2195,354.1043,79.206,280.9155,0.00099084,0.00015527,0.0,0 STARLINK-3549,1 51891U 22022AR  23283.68492372  .00015527  00000-0  99084-3 0  9994,2 51891  53.2195 354.1043 0001980  79.2060 280.9155 15.08865692 90293,6917.802,95.436,541.037,538.297,0.0
51891.0,STARLINK-3549,PAYLOAD,2023-10-11 11:30:55,15.08855871,0.0001754,53.2184,350.537,80.3227,279.7963,0.00106,0.00016629,0.0,0 STARLINK-3549,1 51891U 22022AR  23284.47981067  .00016629  00000-0  10600-2 0  9996,2 51891  53.2184 350.5370 0001754  80.3227 279.7963 15.08855871 90416,6917.832,95.437,540.91,538.483,0.0
